#aV2012 12  3  0  0  0.00000000     288 DD+AD WGS84 FIT  NGA
## 1717  86400.00000000   300.00000000 56264 0.0000000000000
+   31     1  2  3  4  5  6  7  8  9 10 11 12 13 14 15 16 17
+         18 19 20 21 22 23 24 25 26 28 29 30 31 32  0  0  0
+          0  0  0  0  0  0  0  0  0  0  0  0  0  0  0  0  0
+          0  0  0  0  0  0  0  0  0  0  0  0  0  0  0  0  0
+          0  0  0  0  0  0  0  0  0  0  0  0  0  0  0  0  0
++         2  2  2  2  2  2  2  2  2  2  2  2  2  2  2  2  2
++         2  2  2  2  2  2  2  2  2  2  2  2  2  2  2  0  0
++         0  0  0  0  0  0  0  0  0  0  0  0  0  0  0  0  0
++         0  0  0  0  0  0  0  0  0  0  0  0  0  0  0  0  0
++         0  0  0  0  0  0  0  0  0  0  0  0  0  0  0  0  0
%c cc cc ccc ccc cccc cccc cccc cccc ccccc ccccc ccccc ccccc
%c cc cc ccc ccc cccc cccc cccc cccc ccccc ccccc ccccc ccccc
%f  0.0000000  0.000000000  0.00000000000  0.000000000000000
%f  0.0000000  0.000000000  0.00000000000  0.000000000000000
%i    0    0    0    0      0      0      0      0         0
%i    0    0    0    0      0      0      0      0         0
/*      NGA, ST. LOUIS,MO.                                  
/*   EPHEMERIS COMPUTED FROM  1 DAYS OF DATA
/*   EPOCHA SMOOTHER  
/* CCCCCCCCCCCCCCCCCCCCCCCCCCCCCCCCCCCCCCCCCCCCCCCCCCCCCCCCC
*  2012 12  3 16 50  0.00000000                                                 
P  1  20948.957545  14271.306329  -8062.651409    285.584663                    
V  1 -10437.318688  -1294.334340 -29435.298591      0.019697                    
P  2  -2287.737702 -16949.324390  20588.293424    410.646666                    
V  2  24415.406631   8238.178272   9057.012280      0.010254                    
P  3  -3001.159011  20898.876804 -16473.518717    136.785348                    
V  3 -15621.266654  12992.278944  20176.018614      0.050308                    
P  4  14761.572853  -9719.362507  19631.694660     64.448835                    
V  4  23322.814869  10475.387067 -11884.954892      0.112082                    
P  5  -2503.716786 -26280.954065   2063.201414   -370.547071                    
V  5   3643.255578   2145.592340  31459.019610     -0.023643                    
P  6  -9936.028244  21083.214877 -12327.994459    436.643531                    
V  6 -13955.514458   8385.130219  25715.445578     -0.126603                    
P  7  25273.430645   5774.656205  -6393.284853    152.800131                    
V  7   6706.718474   4966.105266  30518.566764      0.044505                    
P  8  20634.338192  -1539.127170 -16890.067214      3.218738                    
V  8  18579.593189  10504.380879  21044.075998      0.002480                    
P  9 -15133.776078 -16421.725902 -14864.026119    204.046030                    
V  9  17233.286095   5112.374485 -24130.904620      0.026259                    
P 10  10054.373164 -17367.639646  16911.325459    -60.776714                    
V 10   5225.258966  21724.376230  19305.156654     -0.014646                    
P 11  17327.858869  13926.930243 -15160.409098   -329.535320                    
V 11 -18870.765279   1494.378445 -20487.883417     -0.038288                    
P 12 -11542.295125 -19777.789267  13603.231444    104.926018                    
V 12   -525.705816 -17251.274766 -25305.043224      0.020306                    
P 13  21242.286897  -1250.536803  15830.223240    162.823597                    
V 13 -16206.368939  12236.398945  22413.759833     -0.027429                    
P 14 -22066.065545  14610.116834   -770.458905    217.722520                    
V 14   -387.509524  -2703.686879 -32175.978508      0.005800                    
P 15  -7133.029603 -14171.884731 -21288.866674   -101.234782                    
V 15  21122.744552 -16984.002115   4471.449591     -0.010033                    
P 16   1336.491336  26274.122537   2034.988580   -250.373212                    
V 16  -2622.524164  -2351.774237  32315.638870     -0.004572                    
P 17  21263.139140 -15690.045647     26.488324     72.833540                    
V 17   1578.088604   2471.133152 -31993.250552     -0.035907                    
P 18 -15809.676143    326.814480 -20975.913546    227.618076                    
V 18  -3851.395512 -27368.196281   2082.420032      0.018551                    
P 19   3472.025926  15509.223262 -21294.760985   -327.703877                    
V 19 -22917.080424  14167.105719   7001.446045     -0.033301                    
P 20  14028.950697  17819.460709  13713.125257     75.271652                    
V 20    640.309497  17975.390823 -23644.584919      0.012201                    
P 21 -24987.394387  -2808.856059  -8846.285189   -266.076147                    
V 21  -9868.695584  -7238.319023  27942.858540     -0.023585                    
P 22 -11692.082326  15087.523447 -18233.239943    152.544327                    
V 22  -5411.697406 -23165.499833 -15669.551106      0.008853                    
P 23  13776.596939   8237.713621  21276.930720    137.741267                    
V 23 -20918.365720  16799.131907   6683.656511     -0.038241                    
P 24 -18352.401959 -15535.332013 -11294.081989      2.962309                    
V 24  14268.038050   2859.850725 -27098.368959     -0.006639                    
P 25 -15271.954914  -7676.816132  20311.189777     54.400777                    
V 25  -3139.582805 -25647.648287 -11962.143312      0.021007                    
P 26   5933.892271 -18659.572023 -18401.096314   -187.942636                    
V 26  19216.840558 -11168.355318  18490.980200      0.135641                    
P 28  12449.361564 -10978.155968 -20109.207016    210.502520                    
V 28   3598.568996  26613.150737 -12166.434072      0.035755                    
P 29 -20371.150314    135.925650  17073.629021    383.607086                    
V 29  16497.967165 -14022.239356  19892.133178      0.040441                    
P 30  -3336.364513  22874.981922  12746.964589   -297.153957                    
V 30  -6393.842836 -15653.816976  25683.550356      0.137685                    
P 31 -10666.813803  11331.883672  21752.480365    290.249733                    
V 31 -24849.584519 -10723.669876  -6407.020534      0.020838                    
P 32   6901.079288  24868.990015   7484.331250   -513.569009                    
V 32  -1933.610332   9304.659146 -29287.815122     -0.034759                    
EOF
